1 88888U          80275.98708465  .00073094  13844-3  66816-4 0     8
2 88888  72.8435 115.9689 0086731  52.6988 110.5714 16.05824518   105

Reference number: 10
Ephem set number: 0
Ephem type: 0
Year: 1980
Day: 275.98708465
Average motion n0 ( rad/s ): 0.0700673126 ( 16.058245180 1/day )
BSTAR Drag term: 0.0000668160
Orbit declination i0 ( rad ): 1.2713589137 (  72.8435 deg )
Right accending raan ( rad ): 2.0240391349 ( 115.9689 deg )
Excentricity e0: 0.0086731
Perigelium arg w0 ( rad ): 0.9197675718 (  52.6988 deg )
Average anomaly m0 ( rad ): 1.9298349885 ( 110.5714 deg )

   0  2328.8728261 -5995.2124992  1720.0497640  2.9121068 -0.9835394 -7.0908151
 360  2456.0461062 -6071.9048792  1222.8401568  2.6793620 -0.4482078 -7.2288858
 720  2567.6849304 -6112.4087435   713.2908947  2.4399244  0.0989414 -7.3201881
1080  2663.4958171 -6115.1815231   194.6254887  2.1952508  0.6545395 -7.3630898
1440  2743.2944883 -6078.9066071  -329.7412790  1.9468059  1.2150088 -7.3562556

Отклонения от эталона:
   0  0.00017600  0.00039140  0.00092063  0.00000019 -0.00000089  0.00000040
 360  0.00032980  0.00002797 -0.00070933 -0.00000046  0.00000071 -0.00000026
 720  0.00109253  0.00006999 -0.00192911 -0.00000118  0.00000222 -0.00000043
1080  0.00073038  0.00030066 -0.00267944 -0.00000152  0.00000288 -0.00000005
1440  0.00209943  0.00122977 -0.00693834 -0.00000370  0.00000769  0.00000032
